NORAD_CAT_ID,OBJECT_NAME,OBJECT_TYPE,EPOCH,MEAN_MOTION,ECCENTRICITY,INCLINATION,RA_OF_ASC_NODE,ARG_OF_PERICENTER,MEAN_ANOMALY,BSTAR,MEAN_MOTION_DOT,MEAN_MOTION_DDOT,TLE_LINE0,TLE_LINE1,TLE_LINE2,SEMIMAJOR_AXIS,PERIOD,APOGEE,PERIGEE,DECAYED
53835.0,STARLINK-4783,PAYLOAD,2022-12-31 15:33:03,15.08846597,0.0001984,53.2168,129.4822,42.2166,317.8979,0.00012651,1.726e-05,0.0,0 STARLINK-4783,1 53835U 22114T   22365.64795690  .00001726  00000-0  12651-3 0  9992,2 53835  53.2168 129.4822 0001984  42.2166 317.8979 15.08846597 16567,6917.86,95.437,541.0980000000002,538.3530000000002,0.0
53835.0,STARLINK-4783,PAYLOAD,2023-01-01 07:26:55,15.08834446,0.0002104,53.2169,126.5092,43.4242,316.6916,-6.895e-05,-1.385e-05,0.0,0 STARLINK-4783,1 53835U 22114T   23001.31036837 -.00001385  00000-0 -68950-4 0  9992,2 53835  53.2169 126.5092 0002104  43.4242 316.6916 15.08834446 16667,6917.897,95.438,541.2180000000002,538.307,0.0
53835.0,STARLINK-4783,PAYLOAD,2023-01-01 15:23:52,15.08822447,0.0001996999999999,53.2166,125.0226,40.1266,319.9874,-0.00011327,-2.09e-05,0.0,0 STARLINK-4783,1 53835U 22114T   23001.64157810 -.00002090  00000-0 -11327-3 0  9992,2 53835  53.2166 125.0226 0001997  40.1266 319.9874 15.08822447 16719,6917.934,95.439,541.181,538.418,0.0
53835.0,STARLINK-4783,PAYLOAD,2023-01-01 18:34:38,15.08821935,0.0002108,53.2187,124.4281,41.4779,318.6373,-0.00017369,-3.05e-05,0.0,0 STARLINK-4783,1 53835U 22114T   23001.77406180 -.00003050  00000-0 -17369-3 0  9992,2 53835  53.2187 124.4281 0002108  41.4779 318.6373 15.08821935 17277,6917.936,95.439,541.259,538.342,0.0
53835.0,STARLINK-4783,PAYLOAD,2023-01-02 00:56:11,15.08830107,0.0002059,53.2188,123.2388,41.2788,318.836,-0.00014544,-2.602e-05,0.0,0 STARLINK-4783,1 53835U 22114T   23002.03901778 -.00002602  00000-0 -14544-3 0  9999,2 53835  53.2188 123.2388 0002059  41.2788 318.8360 15.08830107 16779,6917.911,95.438,541.2,538.351,0.0
53835.0,STARLINK-4783,PAYLOAD,2023-01-02 20:00:47,15.08841224,0.0002123,53.2172,119.6694,38.4051,321.7092,8.1704e-05,1.012e-05,0.0,0 STARLINK-4783,1 53835U 22114T   23002.83388733  .00001012  00000-0  81704-4 0  9992,2 53835  53.2172 119.6694 0002123  38.4051 321.7092 15.08841224 16894,6917.877,95.437,541.21,538.273,0.0
53835.0,STARLINK-4783,PAYLOAD,2023-01-03 13:30:03,15.08832846,0.0002102,53.2177,116.3983,39.5228,320.5918,0.00022195,3.245e-05,0.0,0 STARLINK-4783,1 53835U 22114T   23003.56253481  .00003245  00000-0  22195-3 0  9992,2 53835  53.2177 116.3983 0002102  39.5228 320.5918 15.08832846 17007,6917.901999999999,95.438,541.221,538.313,0.0
53835.0,STARLINK-4783,PAYLOAD,2023-01-03 19:51:36,15.08825017,0.0002188,53.218,115.2092,38.971,321.1439,0.00020824,3.026e-05,0.0,0 STARLINK-4783,1 53835U 22114T   23003.82750268  .00003026  00000-0  20824-3 0  9990,2 53835  53.2180 115.2092 0002188  38.9710 321.1439 15.08825017 17044,6917.926,95.439,541.305,538.278,0.0
53835.0,STARLINK-4783,PAYLOAD,2023-01-04 13:20:49,15.08845937,0.0002233,53.2177,111.9388,39.5842,320.5313,0.00021614,3.154e-05,0.0,0 STARLINK-4783,1 53835U 22114T   23004.55613302  .00003154  00000-0  21614-3 0  9998,2 53835  53.2177 111.9388 0002233  39.5842 320.5313 15.08845937 17154,6917.861999999999,95.437,541.2719999999998,538.182,0.0
53835.0,STARLINK-4783,PAYLOAD,2023-01-05 06:50:03,15.08863093,0.0002157,53.2175,108.667,41.8905,318.2252,0.00030907,4.637e-05,0.0,0 STARLINK-4783,1 53835U 22114T   23005.28476000  .00004637  00000-0  30907-3 0  9993,2 53835  53.2175 108.6670 0002157  41.8905 318.2252 15.08863093 17261,6917.81,95.436,541.1669999999998,538.183,0.0
53835.0,STARLINK-4783,PAYLOAD,2023-01-05 13:11:35,15.08866213,0.0002408,53.2157,107.479,39.2712,320.8454,0.00039034,5.934e-05,0.0,0 STARLINK-4783,1 53835U 22114T   23005.54971815  .00005934  00000-0  39034-3 0  9997,2 53835  53.2157 107.4790 0002408  39.2712 320.8454 15.08866213 17841,6917.8,95.436,541.331,537.999,0.0
53835.0,STARLINK-4783,PAYLOAD,2023-01-05 16:22:21,15.08862021,0.0002236,53.217,106.8831,38.4714,321.6438,0.00030673,4.6e-05,0.0,0 STARLINK-4783,1 53835U 22114T   23005.68219817  .00004600  00000-0  30673-3 0  9998,2 53835  53.2170 106.8831 0002236  38.4714 321.6438 15.08862021 17863,6917.813,95.436,541.225,538.131,0.0
53835.0,STARLINK-4783,PAYLOAD,2023-01-06 06:40:50,15.08842787,0.0002226,53.2163,104.2082,41.3883,318.7277,-7.0443e-05,-1.409e-05,0.0,0 STARLINK-4783,1 53835U 22114T   23006.27836358 -.00001409  00000-0 -70443-4 0  9995,2 53835  53.2163 104.2082 0002226  41.3883 318.7277 15.08842787 17410,6917.871999999999,95.437,541.2769999999998,538.197,0.0
53835.0,STARLINK-4783,PAYLOAD,2023-01-06 16:13:09,15.08828648,0.0001482,53.2176,102.4205,43.9587,316.1522,-0.00032821,-5.506e-05,0.0,0 STARLINK-4783,1 53835U 22114T   23006.67580712 -.00005506  00000-0 -32821-3 0  9998,2 53835  53.2176 102.4205 0001482  43.9587 316.1522 15.08828648 17474,6917.915,95.438,540.805,538.755,0.0
53835.0,STARLINK-4783,PAYLOAD,2023-01-07 06:31:38,15.08836052,0.0002582,53.2177,99.7493,12.6094,347.4962,3.5317e-05,2.74e-06,0.0,0 STARLINK-4783,1 53835U 22114T   23007.27197110  .00000274  00000-0  35317-4 0  9990,2 53835  53.2177  99.7493 0002582  12.6094 347.4962 15.08836052 18104,6917.892,95.438,541.544,537.971,0.0
53835.0,STARLINK-4783,PAYLOAD,2023-01-07 08:07:01,15.08843282,0.0002145,53.2176,99.4501,28.461,331.6499,0.00017485,2.496e-05,0.0,0 STARLINK-4783,1 53835U 22114T   23007.33820795  .00002496  00000-0  17485-3 0  9992,2 53835  53.2176  99.4501 0002145  28.4610 331.6499 15.08843282 17577,6917.87,95.437,541.219,538.251,0.0
53835.0,STARLINK-4783,PAYLOAD,2023-01-07 16:03:57,15.08833677,0.0002441,53.2172,97.9649,16.7302,343.3771,0.00024124,3.553e-05,0.0,0 STARLINK-4783,1 53835U 22114T   23007.66941443  .00003553  00000-0  24124-3 0  9995,2 53835  53.2172  97.9649 0002441  16.7302 343.3771 15.08833677 17622,6917.9,95.438,541.453,538.076,0.0
53835.0,STARLINK-4783,PAYLOAD,2023-01-08 06:22:27,15.08819446,0.0002557,53.2164,95.2854,34.6579,325.4579,0.00011951,1.613e-05,0.0,0 STARLINK-4783,1 53835U 22114T   23008.26559032  .00001613  00000-0  11951-3 0  9990,2 53835  53.2164  95.2854 0002557  34.6579 325.4579 15.08819446 17710,6917.943,95.439,541.577,538.039,0.0
53835.0,STARLINK-4783,PAYLOAD,2023-01-08 12:43:59,15.08831446,0.0002468,53.2145,94.0965,36.9459,323.1703,0.00031698,4.759e-05,0.0,0 STARLINK-4783,1 53835U 22114T   23008.53054790  .00004759  00000-0  31698-3 0  9995,2 53835  53.2145  94.0965 0002468  36.9459 323.1703 15.08831446 17754,6917.906999999998,95.438,541.479,538.064,0.0
53835.0,STARLINK-4783,PAYLOAD,2023-01-08 22:16:18,15.08835567,0.0002315,53.2162,92.3136,33.0336,327.0801,0.00032022,4.811e-05,0.0,0 STARLINK-4783,1 53835U 22114T   23008.92798984  .00004811  00000-0  32022-3 0  9999,2 53835  53.2162  92.3136 0002315  33.0336 327.0801 15.08835567 18354,6917.894,95.438,541.36,538.1569999999998,0.0
53835.0,STARLINK-4783,PAYLOAD,2023-01-09 14:10:09,15.08848358,0.000237,53.2154,89.3401,35.3196,324.7953,0.00062354,9.652e-05,0.0,0 STARLINK-4783,1 53835U 22114T   23009.59038954  .00009652  00000-0  62354-3 0  9996,2 53835  53.2154  89.3401 0002370  35.3196 324.7953 15.08848358 18451,6917.855,95.437,541.359,538.08,0.0
53835.0,STARLINK-4783,PAYLOAD,2023-01-09 15:45:32,15.08852566,0.0002374,53.2159,89.0429,36.2987,323.8166,0.00069693,0.00010825,0.0,0 STARLINK-4783,1 53835U 22114T   23009.65662848  .00010825  00000-0  69693-3 0  9995,2 53835  53.2159  89.0429 0002374  36.2987 323.8166 15.08852566 17928,6917.842,95.437,541.349,538.065,0.0
53835.0,STARLINK-4783,PAYLOAD,2023-01-10 09:14:47,15.08845762,0.0001936,53.2128,85.7695,47.5796,312.536,0.0005067,7.787e-05,0.0,0 STARLINK-4783,1 53835U 22114T   23010.38526942  .00007787  00000-0  50670-3 0  9999,2 53835  53.2128  85.7695 0001936  47.5796 312.5360 15.08845762 18032,6917.863,95.437,541.067,538.388,0.0
53835.0,STARLINK-4783,PAYLOAD,2023-01-10 12:25:33,15.08849844,0.0001849,53.2148,85.1753,41.5657,318.5475,0.00066686,0.00010344,0.0,0 STARLINK-4783,1 53835U 22114T   23010.51774854  .00010344  00000-0  66686-3 0  9998,2 53835  53.2148  85.1753 0001849  41.5657 318.5475 15.08849844 18595,6917.85,95.437,540.994,538.436,0.0
53835.0,STARLINK-4783,PAYLOAD,2023-01-11 13:51:43,15.08855876,0.0001999,53.2157,80.4183,47.1123,313.0036,0.00078986,0.0001230999999999,0.0,0 STARLINK-4783,1 53835U 22114T   23011.57758899  .00012310  00000-0  78986-3 0  9997,2 53835  53.2157  80.4183 0001999  47.1123 313.0036 15.08855876 18210,6917.831999999999,95.437,541.08,538.314,0.0
53835.0,STARLINK-4783,PAYLOAD,2023-01-11 21:48:39,15.08845115,0.0001516,53.214,78.93,51.5575,308.5553,0.00046037,7.047e-05,0.0,0 STARLINK-4783,1 53835U 22114T   23011.90878861  .00007047  00000-0  46037-3 0  9999,2 53835  53.2140  78.9300 0001516  51.5575 308.5553 15.08845115 18803,6917.865,95.437,540.779,538.681,0.0
53835.0,STARLINK-4783,PAYLOAD,2023-01-12 04:10:12,15.08840838,0.0001905,53.215,77.7418,59.1577,300.9602,0.00040229,6.12e-05,0.0,0 STARLINK-4783,1 53835U 22114T   23012.17375067  .00006120  00000-0  40229-3 0  9997,2 53835  53.2150  77.7418 0001905  59.1577 300.9602 15.08840838 18302,6917.8780000000015,95.438,541.061,538.425,0.0
53835.0,STARLINK-4783,PAYLOAD,2023-01-12 21:39:26,15.08845161,0.0001771,53.2153,74.4715,53.7934,306.3221,0.00036919,5.593e-05,0.0,0 STARLINK-4783,1 53835U 22114T   23012.90239091  .00005593  00000-0  36919-3 0  9998,2 53835  53.2153  74.4715 0001771  53.7934 306.3221 15.08845161 18959,6917.865,95.437,540.955,538.504,0.0
53835.0,STARLINK-4783,PAYLOAD,2023-01-13 13:33:18,15.08847935,0.0001923,53.2171,71.4954,71.4318,288.6883,0.00042878,6.544e-05,0.0,0 STARLINK-4783,1 53835U 22114T   23013.56479185  .00006544  00000-0  42878-3 0  9999,2 53835  53.2171  71.4954 0001923  71.4318 288.6883 15.08847935 18512,6917.856,95.437,541.0509999999999,538.391,0.0
